*******************************************************************************
 Revised: Nov 05, 2015            Hydra / (Pluto)                           903

 Fit to all available observations including New Horizons encounter tracking.
*******************************************************************************
 
 
*******************************************************************************
Ephemeris / WWW_USER Thu Jun 18 11:47:02 2020 Pasadena, USA      / Horizons
*******************************************************************************
Target body name: Hydra (903)                     {source: plu055l_merged}
Center body name: Solar System Barycenter (0)     {source: DE431mx}
Center-site name: BODY CENTER
*******************************************************************************
Start time      : A.D. 2000-Jun-05 00:00:00.0000 TDB
Stop  time      : A.D. 2040-May-26 00:00:00.0000 TDB
Step-size       : 14400 minutes
*******************************************************************************
Center geodetic : 0.00000000,0.00000000,0.0000000 {E-lon(deg),Lat(deg),Alt(km)}
Center cylindric: 0.00000000,0.00000000,0.0000000 {E-lon(deg),Dxy(km),Dz(km)}
Center radii    : (undefined)                                                  
Output units    : AU-D
Output type     : GEOMETRIC cartesian states
Output format   : 3 (position, velocity, LT, range, range-rate)
Reference frame : Ecliptic of J2000.0
*******************************************************************************
JDTDB
   X     Y     Z
   VX    VY    VZ
   LT    RG    RR
*******************************************************************************
$$SOE
2453320.500000000 = A.D. 2004-Nov-11 00:00:00.0000 TDB 
 X =-4.361599144971111E+00 Y =-3.022763403056649E+01 Z = 4.496444055740007E+00
 VX= 3.199623655978169E-03 VY=-9.505023910932923E-04 VZ=-7.773144945591725E-04
 LT= 1.782897378231658E-01 RG= 3.086991116497866E+01 RR= 3.654306428746524E-04
2453330.500000000 = A.D. 2004-Nov-21 00:00:00.0000 TDB 
 X =-4.329463824565860E+00 Y =-3.023729161404045E+01 Z = 4.488168206950508E+00
 VX= 3.205268009790558E-03 VY=-9.991790366127046E-04 VZ=-8.683870400328662E-04
 LT= 1.783112801539872E-01 RG= 3.087364110393569E+01 RR= 4.028649831742395E-04
2453340.500000000 = A.D. 2004-Dec-01 00:00:00.0000 TDB 
 X =-4.297789418294411E+00 Y =-3.024764364300120E+01 Z = 4.479543767438563E+00
 VX= 3.129604813655949E-03 VY=-1.055453317463912E-03 VZ=-8.315840235668077E-04
 LT= 1.783370506014291E-01 RG= 3.087810311859186E+01 RR= 4.776678246840604E-04
2453350.500000000 = A.D. 2004-Dec-11 00:00:00.0000 TDB 
 X =-4.266576233783586E+00 Y =-3.025796643167371E+01 Z = 4.471713843900613E+00
 VX= 3.134983601738260E-03 VY=-9.929065353035322E-04 VZ=-7.465867905222855E-04
 LT= 1.783639058132099E-01 RG= 3.088275295437103E+01 RR= 4.316054212967308E-04
2453360.500000000 = A.D. 2004-Dec-21 00:00:00.0000 TDB 
 X =-4.234826507632317E+00 Y =-3.026753068913914E+01 Z = 4.464113593786604E+00
 VX= 3.211740608142234E-03 VY=-9.385187814471760E-04 VZ=-7.972536159850439E-04
 LT= 1.783864442675881E-01 RG= 3.088665536677539E+01 RR= 3.641200679847448E-04
2453370.500000000 = A.D. 2004-Dec-31 00:00:00.0000 TDB 
 X =-4.202684673891801E+00 Y =-3.027717509293529E+01 Z = 4.455667097724564E+00
 VX= 3.195010953766726E-03 VY=-1.003379293423307E-03 VZ=-8.754313469481508E-04
 LT= 1.784086367813716E-01 RG= 3.089049788142257E+01 RR= 4.225000317080263E-04
2453380.500000000 = A.D. 2005-Jan-10 00:00:00.0000 TDB 
 X =-4.171128171750589E+00 Y =-3.028749574435416E+01 Z = 4.447114057567706E+00
 VX= 3.122583902626115E-03 VY=-1.040828183061593E-03 VZ=-8.145412010616981E-04
 LT= 1.784352470709339E-01 RG= 3.089510531023416E+01 RR= 4.815333595754260E-04
2453390.500000000 = A.D. 2005-Jan-20 00:00:00.0000 TDB 
 X =-4.139869246066213E+00 Y =-3.029757651809676E+01 Z = 4.439406334371001E+00
 VX= 3.149817681290436E-03 VY=-9.647612257867944E-04 VZ=-7.457682713419136E-04
 LT= 1.784616462894337E-01 RG= 3.089967619322420E+01 RR= 4.168110125870636E-04
2453400.500000000 = A.D. 2005-Jan-30 00:00:00.0000 TDB 
 X =-4.107970146662626E+00 Y =-3.030694527500012E+01 Z = 4.431676973444155E+00
 VX= 3.220347894924382E-03 VY=-9.313382305909682E-04 VZ=-8.187950992436691E-04
 LT= 1.784837119895596E-01 RG= 3.090349675076719E+01 RR= 3.678641442169295E-04
2453410.500000000 = A.D. 2005-Feb-09 00:00:00.0000 TDB 
 X =-4.075861549624559E+00 Y =-3.031659987820021E+01 Z = 4.423090448705506E+00
 VX= 3.182483132961826E-03 VY=-1.006204162022417E-03 VZ=-8.764917163299302E-04
 LT= 1.785067439199898E-01 RG= 3.090748460590132E+01 RR= 4.418517513511799E-04
2453420.500000000 = A.D. 2005-Feb-19 00:00:00.0000 TDB 
 X =-4.044412128481274E+00 Y =-3.032685240128346E+01 Z = 4.414647339061346E+00
 VX= 3.119362811519575E-03 VY=-1.021878061540645E-03 VZ=-7.972760228813085E-04
 LT= 1.785340009628646E-01 RG= 3.091220401657765E+01 RR= 4.805436673338762E-04
2453430.500000000 = A.D. 2005-Mar-01 00:00:00.0000 TDB 
 X =-4.013070017920883E+00 Y =-3.033667231741672E+01 Z = 4.407026636808381E+00
 VX= 3.166791635956588E-03 VY=-9.380647003172889E-04 VZ=-7.509634009214689E-04
 LT= 1.785597773465191E-01 RG= 3.091666705905719E+01 RR= 4.023619080255260E-04
2453440.500000000 = A.D. 2005-Mar-11 00:00:00.0000 TDB 
 X =-3.981039255483735E+00 Y =-3.034588577360293E+01 Z = 4.399134607064327E+00
 VX= 3.224298175765727E-03 VY=-9.283709134386605E-04 VZ=-8.390620044239925E-04
 LT= 1.785815897440155E-01 RG= 3.092044375860945E+01 RR= 3.766127509492899E-04
2453450.500000000 = A.D. 2005-Mar-21 00:00:00.0000 TDB 
 X =-3.948999824431703E+00 Y =-3.035556323466645E+01 Z = 4.390448958119473E+00
 VX= 3.168720328230870E-03 VY=-1.006912909351036E-03 VZ=-8.721848484715648E-04
 LT= 1.786055919326426E-01 RG= 3.092459960874267E+01 RR= 4.599202444797369E-04
2453460.500000000 = A.D. 2005-Mar-31 00:00:00.0000 TDB 
 X =-3.917635785525663E+00 Y =-3.036570637998610E+01 Z = 4.382142795809620E+00
 VX= 3.120787982535995E-03 VY=-9.987392082382316E-04 VZ=-7.814482068696292E-04
 LT= 1.786332592812931E-01 RG= 3.092939006166184E+01 RR= 4.745290226812770E-04
2453470.500000000 = A.D. 2005-Apr-10 00:00:00.0000 TDB 
 X =-3.886178361760330E+00 Y =-3.037525775270336E+01 Z = 4.374565538541051E+00
 VX= 3.183856925870707E-03 VY=-9.144124863956318E-04 VZ=-7.611629687255184E-04
 LT= 1.786583095273127E-01 RG= 3.093372737730730E+01 RR= 3.902769826229979E-04
2453480.500000000 = A.D. 2005-Apr-20 00:00:00.0000 TDB 
 X =-3.854044585982184E+00 Y =-3.038435987000862E+01 Z = 4.366490052502940E+00
 VX= 3.223545203656633E-03 VY=-9.292353519320972E-04 VZ=-8.573739923239625E-04
 LT= 1.786801276423459E-01 RG= 3.093750506682037E+01 RR= 3.900385426167183E-04
2453490.500000000 = A.D. 2005-Apr-30 00:00:00.0000 TDB 
 X =-3.822102097059349E+00 Y =-3.039406000858744E+01 Z = 4.357752396542186E+00
 VX= 3.155537047834444E-03 VY=-1.003879306787857E-03 VZ=-8.630521173028379E-04
 LT= 1.787051540124946E-01 RG= 3.094183824848693E+01 RR= 4.747686796602622E-04
2453500.500000000 = A.D. 2005-May-10 00:00:00.0000 TDB 
 X =-3.790793049036810E+00 Y =-3.040405091313016E+01 Z = 4.349597909654885E+00
 VX= 3.126403005209564E-03 VY=-9.724630313451439E-04 VZ=-7.679203052493278E-04
 LT= 1.787329704642424E-01 RG= 3.094665451780710E+01 RR= 4.645130274987493E-04
2453510.500000000 = A.D. 2005-May-20 00:00:00.0000 TDB 
 X =-3.759197415407469E+00 Y =-3.041333988427928E+01 Z = 4.342014599238492E+00
 VX= 3.199935713811121E-03 VY=-8.949973300644651E-04 VZ=-7.764130182182635E-04
 LT= 1.787572746205761E-01 RG= 3.095086265202796E+01 RR= 3.818785732302453E-04
2453520.500000000 = A.D. 2005-May-30 00:00:00.0000 TDB 
 X =-3.726996112443613E+00 Y =-3.042237310882629E+01 Z = 4.333748913495656E+00
 VX= 3.218604564967325E-03 VY=-9.322181714304476E-04 VZ=-8.719262276179374E-04
 LT= 1.787793638890061E-01 RG= 3.095468729029630E+01 RR= 4.065895697585095E-04
2453530.500000000 = A.D. 2005-Jun-09 00:00:00.0000 TDB 
 X =-3.695168758132204E+00 Y =-3.043208306281893E+01 Z = 4.325009921801342E+00
 VX= 3.143466142738983E-03 VY=-9.967242946333733E-04 VZ=-8.494090695569555E-04
 LT= 1.788053896180869E-01 RG= 3.095919350559809E+01 RR= 4.858994788057059E-04
2453540.500000000 = A.D. 2005-Jun-19 00:00:00.0000 TDB 
 X =-3.663878605875350E+00 Y =-3.044188225800955E+01 Z = 4.317006800916346E+00
 VX= 3.136159370666024E-03 VY=-9.445848329501930E-04 VZ=-7.590206506246279E-04
 LT= 1.788330986533868E-01 RG= 3.096399117633683E+01 RR= 4.517420139455351E-04
2453550.500000000 = A.D. 2005-Jun-29 00:00:00.0000 TDB 
 X =-3.632131817236048E+00 Y =-3.045092668715108E+01 Z = 4.309366526972187E+00
 VX= 3.213918483461484E-03 VY=-8.800212980260187E-04 VZ=-7.951277889337608E-04
 LT= 1.788567117358644E-01 RG= 3.096807965482872E+01 RR= 3.777306019496056E-04
2453560.500000000 = A.D. 2005-Jul-09 00:00:00.0000 TDB 
 X =-3.599903337021007E+00 Y =-3.045992852545260E+01 Z = 4.300919951683540E+00
 VX= 3.209554854527047E-03 VY=-9.364271918390847E-04 VZ=-8.814425362859088E-04
 LT= 1.788793237613107E-01 RG= 3.097199480566865E+01 RR= 4.254942051248936E-04
2453570.500000000 = A.D. 2005-Jul-19 00:00:00.0000 TDB 
 X =-3.568198535640034E+00 Y =-3.046962504798794E+01 Z = 4.292228211778872E+00
 VX= 3.134281662865201E-03 VY=-9.849937853252928E-04 VZ=-8.335657059828361E-04
 LT= 1.789062536578123E-01 RG= 3.097665757270639E+01 RR= 4.923319373097112E-04
2453580.500000000 = A.D. 2005-Jul-29 00:00:00.0000 TDB 
 X =-3.536887417876314E+00 Y =-3.047919816125880E+01 Z = 4.284361745640918E+00
 VX= 3.149513011317467E-03 VY=-9.158309900982646E-04 VZ=-7.549581102276574E-04
 LT= 1.789336159287053E-01 RG= 3.098139520304927E+01 RR= 4.370302741855539E-04
